OBJECT_NAME,OBJECT_ID,EPOCH,MEAN_MOTION,ECCENTRICITY,INCLINATION,RA_OF_ASC_NODE,ARG_OF_PERICENTER,MEAN_ANOMALY,EPHEMERIS_TYPE,CLASSIFICATION_TYPE,NORAD_CAT_ID,ELEMENT_SET_NO,REV_AT_EPOCH,BSTAR,MEAN_MOTION_DOT,MEAN_MOTION_DDOT
2025-108D,2025-108D,2026-07-04T15:23:48.649920,15.19008090,.00106021,97.4679,261.0703,307.4478,52.5792,0,U,64090,999,6201,.39651863E-3,.8245E-4,0
2025-108E,2025-108E,2026-07-04T14:38:31.204032,15.24906281,.00103905,97.4662,262.4197,300.7615,59.2599,0,U,64091,999,6210,.10452806E-2,.26042E-3,0
2025-108F,2025-108F,2026-07-04T14:54:12.748032,15.28269632,.00092457,97.4684,263.3626,298.8913,61.1399,0,U,64092,999,6216,.14020989E-2,.38744E-3,0
COSMOS 2588,2025-109A,2026-07-02T18:38:04.618176,15.29194035,.0008616,72.9699,173.4087,61.3865,298.8196,0,U,64095,999,6199,.23145E-3,.6502E-4,0
STARLINK-34178,2025-110A,2026-07-04T10:10:10.397280,15.31726696,.00009261,53.1580,204.6410,84.8910,275.2197,0,U,64096,999,6375,.11789642E-2,.36429E-3,0
STARLINK-34174,2025-110B,2026-07-04T07:41:07.157472,15.34415174,.00013211,53.1577,203.2957,86.8770,273.2384,0,U,64097,999,6376,.11022934E-2,.37069E-3,0
STARLINK-34146,2025-110C,2026-07-04T10:12:21.064320,15.34426193,.00008276,53.1587,202.5281,99.1263,260.9833,0,U,64098,999,6377,.14569411E-2,.49213E-3,0
STARLINK-34074,2025-110D,2026-07-04T10:34:03.663552,15.30192425,.00012151,53.1589,204.7451,86.1312,273.9828,0,U,64099,999,6375,.91657538E-3,.26879E-3,0
STARLINK-34082,2025-110E,2026-07-04T10:31:01.648992,15.30237078,.00011842,53.1580,204.7329,92.6075,267.5062,0,U,64100,999,6375,.74053568E-3,.21662E-3,0
STARLINK-34072,2025-110F,2026-07-04T10:16:45.463872,15.31738125,.00006312,53.1586,203.9649,106.7633,253.3437,0,U,64101,999,6376,.97396251E-3,.30016E-3,0
STARLINK-34104,2025-110G,2026-07-04T08:02:19.699872,15.34420178,.00012511,53.1573,203.3863,94.1959,265.9187,0,U,64102,999,6376,.13788535E-2,.4653E-3,0
STARLINK-34179,2025-110H,2026-07-04T07:30:30.290112,15.30218353,.00019088,53.1590,205.3708,85.9451,274.1768,0,U,64103,999,6373,.96360294E-3,.28305E-3,0
STARLINK-34176,2025-110J,2026-07-04T01:05:10.602240,15.30202208,.00013075,53.1580,206.5472,93.2023,266.9127,0,U,64104,999,6369,.69550162E-3,.20297E-3,0
STARLINK-33949,2025-110K,2026-07-04T10:23:57.463008,15.31733910,.00011986,53.1584,203.9949,86.6415,273.4724,0,U,64105,999,6376,.14457213E-2,.44815E-3,0
STARLINK-33970,2025-110L,2026-07-04T11:19:00.256800,15.34439206,.00006871,53.1582,202.8140,73.6630,286.4448,0,U,64106,999,6378,.18918052E-2,.6417E-3,0
STARLINK-33912,2025-110M,2026-07-04T10:10:30.861984,15.31733704,.00009606,53.1569,203.9338,82.7524,277.3587,0,U,64107,999,6376,.119485E-2,.36935E-3,0
STARLINK-34156,2025-110N,2026-07-04T08:29:21.293088,15.31727296,.00019339,53.1579,204.2041,81.6411,278.4810,0,U,64108,999,6375,.82110864E-3,.25223E-3,0
STARLINK-34124,2025-110P,2026-07-04T08:22:40.175040,15.31728876,.00016049,53.1575,204.1792,89.8276,270.2909,0,U,64109,999,6375,.23996955E-2,.74919E-3,0
STARLINK-34145,2025-110Q,2026-07-04T10:21:26.780544,15.34426017,.00013058,53.1587,202.5625,82.8207,277.2945,0,U,64110,999,6378,.10849693E-2,.3649E-3,0
STARLINK-34148,2025-110R,2026-07-04T08:09:12.971808,15.31707908,.00010425,53.1569,204.1190,84.3691,275.7429,0,U,64111,999,6375,.10910177E-2,.33652E-3,0
STARLINK-34136,2025-110S,2026-07-04T08:15:54.950400,15.31715851,.00003963,53.1577,204.1487,341.6434,18.4553,0,U,64112,999,6375,.98235343E-3,.30257E-3,0
STARLINK-33839,2025-110T,2026-07-04T08:29:50.145504,15.31716778,.00011017,53.1563,204.2062,83.5909,276.5218,0,U,64113,999,6375,.88003985E-3,.27057E-3,0
STARLINK-34064,2025-110U,2026-07-03T18:51:04.487904,15.31707168,.00011969,53.1580,207.0568,89.2402,270.8736,0,U,64114,999,6366,.64463459E-3,.19696E-3,0
STARLINK-34067,2025-110V,2026-07-04T08:08:04.235424,15.34962337,.00023116,53.1586,203.4161,40.9156,319.2020,0,U,64115,999,6376,.25716839E-2,.89137E-3,0
STARLINK-34080,2025-110W,2026-07-04T11:03:40.056192,15.31729118,.00009832,53.1573,203.4534,84.5021,275.6092,0,U,64116,999,6376,.12454303E-2,.38517E-3,0
STARLINK-34122,2025-110X,2026-07-04T11:10:23.367936,15.31743527,.00005325,53.1567,203.4805,72.4777,287.6283,0,U,64117,999,6376,.16206599E-2,.50335E-3,0
STARLINK-33964,2025-110Y,2026-07-04T10:17:14.157312,15.31729132,.00009746,53.1572,203.9611,94.4090,265.7023,0,U,64118,999,6376,.11279225E-2,.34831E-3,0
STARLINK-34160,2025-110Z,2026-07-04T07:15:21.648960,15.34406064,.00014789,53.1580,199.6153,96.0860,264.0311,0,U,64119,999,6381,.10531905E-2,.35382E-3,0
STARLINK-34151,2025-110AA,2026-07-04T10:24:29.486304,15.31192170,.00019513,53.1592,204.7014,50.5752,309.5421,0,U,64120,999,6375,.62063712E-3,.18641E-3,0
STARLINK-34189,2025-110AB,2026-07-04T10:35:35.096352,15.30233341,.00008778,53.1585,204.7443,102.9870,257.1229,0,U,64121,999,6375,.93355579E-3,.27421E-3,0
