2025-108D               
1 64090U 25108D   26185.64153530  .00008245  00000+0  39652-3 0  9990
2 64090  97.4679 261.0703 0010602 307.4478  52.5792 15.19008090 62016
2025-108E               
1 64091U 25108E   26185.61008338  .00026042  00000+0  10453-2 0  9995
2 64091  97.4662 262.4197 0010390 300.7615  59.2599 15.24906281 62108
2025-108F               
1 64092U 25108F   26185.62098088  .00038744  00000+0  14021-2 0  9995
2 64092  97.4684 263.3626 0009245 298.8913  61.1399 15.28269632 62167
COSMOS 2588             
1 64095U 25109A   26183.77644234  .00006502  00000+0  23145-3 0  9998
2 64095  72.9699 173.4087 0008616  61.3865 298.8196 15.29194035 61995
STARLINK-34178          
1 64096U 25110A   26185.42373145  .00036429  00000+0  11790-2 0  9998
2 64096  53.1580 204.6410 0000926  84.8910 275.2197 15.31726696 63753
STARLINK-34174          
1 64097U 25110B   26185.32022173  .00037069  00000+0  11023-2 0  9990
2 64097  53.1577 203.2957 0001321  86.8770 273.2384 15.34415174 63763
STARLINK-34146          
1 64098U 25110C   26185.42524380  .00049213  00000+0  14569-2 0  9991
2 64098  53.1587 202.5281 0000827  99.1263 260.9833 15.34426193 63777
STARLINK-34074          
1 64099U 25110D   26185.44032018  .00026879  00000+0  91658-3 0  9994
2 64099  53.1589 204.7451 0001215  86.1312 273.9828 15.30192425 63756
STARLINK-34082          
1 64100U 25110E   26185.43821353  .00021662  00000+0  74054-3 0  9990
2 64100  53.1580 204.7329 0001184  92.6075 267.5062 15.30237078 63750
STARLINK-34072          
1 64101U 25110F   26185.42830398  .00030016  00000+0  97396-3 0  9996
2 64101  53.1586 203.9649 0000631 106.7633 253.3437 15.31738125 63766
STARLINK-34104          
1 64102U 25110G   26185.33495023  .00046530  00000+0  13789-2 0  9990
2 64102  53.1573 203.3863 0001251  94.1959 265.9187 15.34420178 63765
STARLINK-34179          
1 64103U 25110H   26185.31285058  .00028305  00000+0  96360-3 0  9991
2 64103  53.1590 205.3708 0001908  85.9451 274.1768 15.30218353 63739
STARLINK-34176          
1 64104U 25110J   26185.04526160  .00020297  00000+0  69550-3 0  9997
2 64104  53.1580 206.5472 0001307  93.2023 266.9127 15.30202208 63695
STARLINK-33949          
1 64105U 25110K   26185.43330397  .00044815  00000+0  14457-2 0  9993
2 64105  53.1584 203.9949 0001198  86.6415 273.4724 15.31733910 63763
STARLINK-33970          
1 64106U 25110L   26185.47153075  .00064170  00000+0  18918-2 0  9996
2 64106  53.1582 202.8140 0000687  73.6630 286.4448 15.34439206 63783
STARLINK-33912          
1 64107U 25110M   26185.42396831  .00036935  00000+0  11948-2 0  9995
2 64107  53.1569 203.9338 0000960  82.7524 277.3587 15.31733704 63765
STARLINK-34156          
1 64108U 25110N   26185.35371867  .00025223  00000+0  82111-3 0  9999
2 64108  53.1579 204.2041 0001933  81.6411 278.4810 15.31727296 63755
STARLINK-34124          
1 64109U 25110P   26185.34907610  .00074919  00000+0  23997-2 0  9992
2 64109  53.1575 204.1792 0001604  89.8276 270.2909 15.31728876 63752
STARLINK-34145          
1 64110U 25110Q   26185.43155996  .00036490  00000+0  10850-2 0  9992
2 64110  53.1587 202.5625 0001305  82.8207 277.2945 15.34426017 63784
STARLINK-34148          
1 64111U 25110R   26185.33973347  .00033652  00000+0  10910-2 0  9994
2 64111  53.1569 204.1190 0001042  84.3691 275.7429 15.31707908 63757
STARLINK-34136          
1 64112U 25110S   26185.34438600  .00030257  00000+0  98235-3 0  9999
2 64112  53.1577 204.1487 0000396 341.6434  18.4553 15.31715851 63757
STARLINK-33839          
1 64113U 25110T   26185.35405261  .00027057  00000+0  88004-3 0  9995
2 64113  53.1563 204.2062 0001101  83.5909 276.5218 15.31716778 63751
STARLINK-34064          
1 64114U 25110U   26184.78546861  .00019696  00000+0  64463-3 0  9997
2 64114  53.1580 207.0568 0001196  89.2402 270.8736 15.31707168 63663
STARLINK-34067          
1 64115U 25110V   26185.33893791  .00089137  00000+0  25717-2 0  9992
2 64115  53.1586 203.4161 0002311  40.9156 319.2020 15.34962337 63768
STARLINK-34080          
1 64116U 25110W   26185.46088028  .00038517  00000+0  12454-2 0  9996
2 64116  53.1573 203.4534 0000983  84.5021 275.6092 15.31729118 63766
STARLINK-34122          
1 64117U 25110X   26185.46554824  .00050335  00000+0  16207-2 0  9991
2 64117  53.1567 203.4805 0000532  72.4777 287.6283 15.31743527 63760
STARLINK-33964          
1 64118U 25110Y   26185.42863608  .00034831  00000+0  11279-2 0  9998
2 64118  53.1572 203.9611 0000974  94.4090 265.7023 15.31729132 63764
STARLINK-34160          
1 64119U 25110Z   26185.30233390  .00035382  00000+0  10532-2 0  9998
2 64119  53.1580 199.6153 0001478  96.0860 264.0311 15.34406064 63816
STARLINK-34151          
1 64120U 25110AA  26185.43367461  .00018641  00000+0  62064-3 0  9998
2 64120  53.1592 204.7014 0001951  50.5752 309.5421 15.31192170 63753
STARLINK-34189          
1 64121U 25110AB  26185.44137843  .00027421  00000+0  93356-3 0  9993
2 64121  53.1585 204.7443 0000877 102.9870 257.1229 15.30233341 63750
